QIANFAN-9               
1 60387U 24140J   25250.91890604  .00000092  00000+0  12372-3 0  9994
2 60387  88.9809 309.2576 0018507 113.2018 247.1085 13.50968840 54399
QIANFAN-10              
1 60388U 24140K   25250.84893158  .00000105  00000+0  14440-3 0  9997
2 60388  88.9817 308.6033 0016983  93.5687 266.7407 13.50966345 54515
QIANFAN-11              
1 60389U 24140L   25250.88591869  .00000088  00000+0  11767-3 0  9995
2 60389  88.9744 309.2577 0016525 112.7960 247.4939 13.50966738 54179
QIANFAN-12              
1 60390U 24140M   25250.90643681  .00000104  00000+0  14279-3 0  9990
2 60390  88.9788 309.2571 0015276 119.6819 240.5855 13.50966728 54309
QIANFAN-13              
1 60391U 24140N   25250.87765306  .00000095  00000+0  12808-3 0  9991
2 60391  88.9800 309.3481 0015061 122.0134 238.2483 13.50966755 54329
QIANFAN-14              
1 60392U 24140P   25250.90227736  .00000097  00000+0  13078-3 0  9998
2 60392  88.9779 309.2637 0018751 122.5491 237.7475 13.50967747 54335
QIANFAN-15              
1 60393U 24140Q   25250.91060008  .00000095  00000+0  12759-3 0  9990
2 60393  88.9802 309.1967 0014666 110.0155 250.2577 13.50971186 54322
QIANFAN-16              
1 60394U 24140R   25250.89828529  .00000108  00000+0  14894-3 0  9995
2 60394  88.9805 309.3151 0016618 125.6268 234.6434 13.50966814 54239
